{"type": "FeatureCollection", "features": [ {"type": "Feature", "properties": {"norad_id": 33980, "name": "COSMOS 2251 DEB", "group": "cosmos-2251-debris", "lat": 23.472941815494547, "lon": 39.567063883381, "alt_km": 713.5314224920085, "timestamp": "2025-12-26T21:25:53.402703+00:00", "meta": {"OBJECT_NAME": "COSMOS 2251 DEB", "OBJECT_ID": "1993-036FP", "EPOCH": "2025-12-26T12:01:53.268672", "MEAN_MOTION": 14.58725098, "ECCENTRICITY": 0.00277901, "INCLINATION": 74.0208, "RA_OF_ASC_NODE": 33.1654, "ARG_OF_PERICENTER": 175.7857, "MEAN_ANOMALY": 312.9834, "EPHEMERIS_TYPE": 0, "CLASSIFICATION_TYPE": "U", "NORAD_CAT_ID": 33980, "ELEMENT_SET_NO": 999, "REV_AT_EPOCH": 88995, "BSTAR": 0.00056249209, "MEAN_MOTION_DOT": 2.61e-05, "MEAN_MOTION_DDOT": 0}, "tle": {"line1": "1 33980U 93036FP  25360.50131098  .00002610  00000+0  56249-3 0  9994", "line2": "2 33980  74.0208  33.1654 0027790 175.7857 312.9834 14.58725098889951"}}, "geometry": {"type": "Point", "coordinates": [39.567063883381, 23.472941815494547]}}, {"type": "Feature", "properties": {"norad_id": 33982, "name": "COSMOS 2251 DEB", "group": "cosmos-2251-debris", "lat": -40.55268439075779, "lon": -41.17343146746473, "alt_km": 668.3090840304021, "timestamp": "2025-12-26T21:25:53.402713+00:00", "meta": {"OBJECT_NAME": "COSMOS 2251 DEB", "OBJECT_ID": "1993-036FR", "EPOCH": "2025-12-26T09:09:19.508256", "MEAN_MOTION": 14.60275564, "ECCENTRICITY": 0.00755728, "INCLINATION": 74.0714, "RA_OF_ASC_NODE": 333.9451, "ARG_OF_PERICENTER": 14.6591, "MEAN_ANOMALY": 135.7423, "EPHEMERIS_TYPE": 0, "CLASSIFICATION_TYPE": "U", "NORAD_CAT_ID": 33982, "ELEMENT_SET_NO": 999, "REV_AT_EPOCH": 89358, "BSTAR": 0.00061330179, "MEAN_MOTION_DOT": 3.052e-05, "MEAN_MOTION_DDOT": 0}, "tle": {"line1": "1 33982U 93036FR  25360.38147579  .00003052  00000+0  61330-3 0  9991", "line2": "2 33982  74.0714 333.9451 0075572  14.6591 135.7423 14.60275564893588"}}, "geometry": {"type": "Point", "coordinates": [-41.17343146746473, -40.55268439075779]}}, {"type": "Feature", "properties": {"norad_id": 33983, "name": "COSMOS 2251 DEB", "group": "cosmos-2251-debris", "lat": 52.581090132177586, "lon": -81.48671521699735, "alt_km": 720.0037770070412, "timestamp": "2025-12-26T21:25:53.402723+00:00", "meta": {"OBJECT_NAME": "COSMOS 2251 DEB", "OBJECT_ID": "1993-036FS", "EPOCH": "2025-12-26T11:15:14.535936", "MEAN_MOTION": 14.50727999, "ECCENTRICITY": 0.00210773, "INCLINATION": 74.0505, "RA_OF_ASC_NODE": 121.259, "ARG_OF_PERICENTER": 222.9559, "MEAN_ANOMALY": 207.7208, "EPHEMERIS_TYPE": 0, "CLASSIFICATION_TYPE": "U", "NORAD_CAT_ID": 33983, "ELEMENT_SET_NO": 999, "REV_AT_EPOCH": 88828, "BSTAR": 0.00060305307, "MEAN_MOTION_DOT": 2.351e-05, "MEAN_MOTION_DDOT": 0}, "tle": {"line1": "1 33983U 93036FS  25360.46891824  .00002351  00000+0  60305-3 0  9992", "line2": "2 33983  74.0505 121.2590 0021077 222.9559 207.7208 14.50727999888283"}}, "geometry": {"type": "Point", "coordinates": [-81.48671521699735, 52.581090132177586]}}, {"type": "Feature", "properties": {"norad_id": 33984, "name": "COSMOS 2251 DEB", "group": "cosmos-2251-debris", "lat": -46.69044502280725, "lon": -57.93930643193935, "alt_km": 693.3266828902533, "timestamp": "2025-12-26T21:25:53.402733+00:00", "meta": {"OBJECT_NAME": "COSMOS 2251 DEB", "OBJECT_ID": "1993-036FT", "EPOCH": "2025-12-26T09:19:20.235360", "MEAN_MOTION": 14.66481336, "ECCENTRICITY": 0.00224088, "INCLINATION": 74.0098, "RA_OF_ASC_NODE": 320.7441, "ARG_OF_PERICENTER": 154.6221, "MEAN_ANOMALY": 13.5669, "EPHEMERIS_TYPE": 0, "CLASSIFICATION_TYPE": "U", "NORAD_CAT_ID": 33984, "ELEMENT_SET_NO": 999, "REV_AT_EPOCH": 89266, "BSTAR": 0.00087653644, "MEAN_MOTION_DOT": 4.845e-05, "MEAN_MOTION_DDOT": 0}, "tle": {"line1": "1 33984U 93036FT  25360.38842865  .00004845  00000+0  87654-3 0  9991", "line2": "2 33984  74.0098 320.7441 0022408 154.6221  13.5669 14.66481336892668"}}, "geometry": {"type": "Point", "coordinates": [-57.93930643193935, -46.69044502280725]}}, {"type": "Feature", "properties": {"norad_id": 33986, "name": "COSMOS 2251 DEB", "group": "cosmos-2251-debris", "lat": -35.74056374537543, "lon": 108.27201211178254, "alt_km": 771.8916686476368, "timestamp": "2025-12-26T21:25:53.402743+00:00", "meta": {"OBJECT_NAME": "COSMOS 2251 DEB", "OBJECT_ID": "1993-036FV", "EPOCH": "2025-12-24T20:26:35.700576", "MEAN_MOTION": 14.43260292, "ECCENTRICITY": 0.00410855, "INCLINATION": 74.0366, "RA_OF_ASC_NODE": 280.1744, "ARG_OF_PERICENTER": 350.3243, "MEAN_ANOMALY": 66.1991, "EPHEMERIS_TYPE": 0, "CLASSIFICATION_TYPE": "U", "NORAD_CAT_ID": 33986, "ELEMENT_SET_NO": 999, "REV_AT_EPOCH": 88203, "BSTAR": 0.00070852763, "MEAN_MOTION_DOT": 2.383e-05, "MEAN_MOTION_DDOT": 0}, "tle": {"line1": "1 33986U 93036FV  25358.85180209  .00002383  00000+0  70853-3 0  9997", "line2": "2 33986  74.0366 280.1744 0041085 350.3243  66.1991 14.43260292882037"}}, "geometry": {"type": "Point", "coordinates": [108.27201211178254, -35.74056374537543]}}, {"type": "Feature", "properties": {"norad_id": 33990, "name": "COSMOS 2251 DEB", "group": "cosmos-2251-debris", "lat": -17.60357181246072, "lon": 88.5200863302109, "alt_km": 1026.5161000741355, "timestamp": "2025-12-26T21:25:53.402754+00:00", "meta": {"OBJECT_NAME": "COSMOS 2251 DEB", "OBJECT_ID": "1993-036FZ", "EPOCH": "2025-12-26T12:27:05.312736", "MEAN_MOTION": 13.50017398, "ECCENTRICITY": 0.04072608, "INCLINATION": 73.9282, "RA_OF_ASC_NODE": 263.8726, "ARG_OF_PERICENTER": 281.6995, "MEAN_ANOMALY": 263.3395, "EPHEMERIS_TYPE": 0, "CLASSIFICATION_TYPE": "U", "NORAD_CAT_ID": 33990, "ELEMENT_SET_NO": 999, "REV_AT_EPOCH": 82915, "BSTAR": 0.00075456647, "MEAN_MOTION_DOT": 7.79e-06, "MEAN_MOTION_DDOT": 0}, "tle": {"line1": "1 33990U 93036FZ  25360.51881149  .00000779  00000+0  75457-3 0  9991", "line2": "2 33990  73.9282 263.8726 0407260 281.6995 263.3395 13.50017398829153"}}, "geometry": {"type": "Point", "coordinates": [88.5200863302109, -17.60357181246072]}}, {"type": "Feature", "properties": {"norad_id": 33992, "name": "COSMOS 2251 DEB", "group": "cosmos-2251-debris", "lat": 13.333604295994364, "lon": 126.54248126646405, "alt_km": 680.9925182314682, "timestamp": "2025-12-26T21:25:53.402765+00:00", "meta": {"OBJECT_NAME": "COSMOS 2251 DEB", "OBJECT_ID": "1993-036GB", "EPOCH": "2025-12-26T14:56:09.178944", "MEAN_MOTION": 14.6633031, "ECCENTRICITY": 0.00519481, "INCLINATION": 74.0246, "RA_OF_ASC_NODE": 310.9575, "ARG_OF_PERICENTER": 64.593, "MEAN_ANOMALY": 112.7139, "EPHEMERIS_TYPE": 0, "CLASSIFICATION_TYPE": "U", "NORAD_CAT_ID": 33992, "ELEMENT_SET_NO": 999, "REV_AT_EPOCH": 89328, "BSTAR": 0.00094775154, "MEAN_MOTION_DOT": 5.31e-05, "MEAN_MOTION_DDOT": 0}, "tle": {"line1": "1 33992U 93036GB  25360.62232846  .00005310  00000+0  94775-3 0  9999", "line2": "2 33992  74.0246 310.9575 0051948  64.5930 112.7139 14.66330310893286"}}, "geometry": {"type": "Point", "coordinates": [126.54248126646405, 13.333604295994364]}}, {"type": "Feature", "properties": {"norad_id": 33994, "name": "COSMOS 2251 DEB", "group": "cosmos-2251-debris", "lat": -58.6687546550836, "lon": 12.25618645488805, "alt_km": 751.0022072678557, "timestamp": "2025-12-26T21:25:53.402775+00:00", "meta": {"OBJECT_NAME": "COSMOS 2251 DEB", "OBJECT_ID": "1993-036GD", "EPOCH": "2025-12-26T13:57:47.130336", "MEAN_MOTION": 14.41223304, "ECCENTRICITY": 0.00240409, "INCLINATION": 74.0415, "RA_OF_ASC_NODE": 164.7942, "ARG_OF_PERICENTER": 296.8147, "MEAN_ANOMALY": 132.1347, "EPHEMERIS_TYPE": 0, "CLASSIFICATION_TYPE": "U", "NORAD_CAT_ID": 33994, "ELEMENT_SET_NO": 999, "REV_AT_EPOCH": 88619, "BSTAR": 0.00011078397, "MEAN_MOTION_DOT": 3.32e-06, "MEAN_MOTION_DDOT": 0}, "tle": {"line1": "1 33994U 93036GD  25360.58179549  .00000332  00000+0  11078-3 0  9990", "line2": "2 33994  74.0415 164.7942 0024040 296.8147 132.1347 14.41223304886198"}}, "geometry": {"type": "Point", "coordinates": [12.25618645488805, -58.6687546550836]}}, {"type": "Feature", "properties": {"norad_id": 33995, "name": "COSMOS 2251 DEB", "group": "cosmos-2251-debris", "lat": -8.004670515454741, "lon": 91.15568939650372, "alt_km": 794.8487429872257, "timestamp": "2025-12-26T21:25:53.402785+00:00", "meta": {"OBJECT_NAME": "COSMOS 2251 DEB", "OBJECT_ID": "1993-036GE", "EPOCH": "2025-12-26T14:46:37.187616", "MEAN_MOTION": 14.34838318, "ECCENTRICITY": 0.00591772, "INCLINATION": 74.0614, "RA_OF_ASC_NODE": 93.9659, "ARG_OF_PERICENTER": 104.3798, "MEAN_ANOMALY": 256.3933, "EPHEMERIS_TYPE": 0, "CLASSIFICATION_TYPE": "U", "NORAD_CAT_ID": 33995, "ELEMENT_SET_NO": 999, "REV_AT_EPOCH": 87718, "BSTAR": 0.00082072957, "MEAN_MOTION_DOT": 2.352e-05, "MEAN_MOTION_DDOT": 0}, "tle": {"line1": "1 33995U 93036GE  25360.61570819  .00002352  00000+0  82073-3 0  9997", "line2": "2 33995  74.0614  93.9659 0059177 104.3798 256.3933 14.34838318877180"}}, "geometry": {"type": "Point", "coordinates": [91.15568939650372, -8.004670515454741]}}, {"type": "Feature", "properties": {"norad_id": 33999, "name": "COSMOS 2251 DEB", "group": "cosmos-2251-debris", "lat": 65.01407836257235, "lon": -15.703094138526987, "alt_km": 581.2601571647474, "timestamp": "2025-12-26T21:25:53.402795+00:00", "meta": {"OBJECT_NAME": "COSMOS 2251 DEB", "OBJECT_ID": "1993-036GJ", "EPOCH": "2025-12-26T14:28:12.424512", "MEAN_MOTION": 14.83631033, "ECCENTRICITY": 0.00443715, "INCLINATION": 73.9182, "RA_OF_ASC_NODE": 203.1227, "ARG_OF_PERICENTER": 94.3441, "MEAN_ANOMALY": 266.2809, "EPHEMERIS_TYPE": 0, "CLASSIFICATION_TYPE": "U", "NORAD_CAT_ID": 33999, "ELEMENT_SET_NO": 999, "REV_AT_EPOCH": 89456, "BSTAR": 0.0012449611, "MEAN_MOTION_DOT": 0.00010434, "MEAN_MOTION_DDOT": 0}, "tle": {"line1": "1 33999U 93036GJ  25360.60292158  .00010434  00000+0  12450-2 0  9998", "line2": "2 33999  73.9182 203.1227 0044371  94.3441 266.2809 14.83631033894563"}}, "geometry": {"type": "Point", "coordinates": [-15.703094138526987, 65.01407836257235]}}]}